stk.v.4.3

BEGIN Ephemeris

NumberOfEphemerisPoints   1004

ScenarioEpoch           27 Apr 2018 23:11:30.836896
InterpolationMethod     Lagrange
InterpolationOrder      7
CentralBody             Earth
CoordinateSystem        Custom Perifocal CentralBody/Earth
DistanceUnit     Kilometers

EphemerisTimePosVel

19260.0 -19538.25380672693 -18391.454648533 0.0 2.655520773259015 -18391.454648533 0.0 
19320.0 -19374.8815816477 -18560.12711204367 0.0 2.680107132622778 -18560.12711204367 0.0 
19380.0 -19210.03897629486 -18727.33391245255 0.0 2.704488192973854 -18727.33391245255 0.0 
19440.0 -19043.7393975848 -18893.06224102174 0.0 2.728662088196066 -18893.06224102174 0.0 
19500.0 -18875.99636374068 -19057.29941614351 0.0 2.75262696806907 -19057.29941614351 0.0 
19560.0 -18706.82350300856 -19220.03288429856 0.0 2.776380998409245 -19220.03288429856 0.0 
19620.0 -18536.23455236553 -19381.25022100036 0.0 2.799922361209354 -19381.25022100036 0.0 
19680.0 -18364.24335621994 -19540.93913172487 0.0 2.82324925477694 -19540.93913172487 0.0 
19740.0 -18190.86386510412 -19699.0874528259 0.0 2.846359893871447 -19699.0874528259 0.0 
19800.0 -18016.11013435944 -19855.68315243615 0.0 2.869252509840081 -19855.68315243615 0.0 
19860.0 -17839.99632281424 -20010.71433135352 0.0 2.891925350752366 -20010.71433135352 0.0 
19920.0 -17662.53669145469 -20164.16922391296 0.0 2.914376681533401 -20164.16922391296 0.0 
19980.0 -17483.74560208857 -20316.03619884378 0.0 2.93660478409583 -20316.03619884378 0.0 
20040.0 -17303.63751600256 -20466.30376011199 0.0 2.958607957470455 -20466.30376011199 0.0 
20100.0 -17122.22699261255 -20614.96054774853 0.0 2.980384517935591 -20614.96054774853 0.0 
20160.0 -16939.52868810827 -20761.99533866198 0.0 3.001932799144997 -20761.99533866198 0.0 
20220.0 -16755.55735409096 -20907.39704743721 0.0 3.02325115225454 -20907.39704743721 0.0 
20280.0 -16570.3278362056 -21051.15472711874 0.0 3.044337946047461 -21051.15472711874 0.0 
20340.0 -16383.85507276698 -21193.25756997958 0.0 3.065191567058301 -21193.25756997958 0.0 
20400.0 -16196.15409338034 -21333.69490827491 0.0 3.085810419695438 -21333.69490827491 0.0 
20460.0 -16007.24001755656 -21472.456214981 0.0 3.106192926362243 -21472.456214981 0.0 
20520.0 -15817.1280533217 -21609.53110451936 0.0 3.126337527576886 -21609.53110451936 0.0 
20580.0 -15625.83349582186 -21744.90933346571 0.0 3.146242682090694 -21744.90933346571 0.0 
20640.0 -15433.37172592307 -21878.58080124398 0.0 3.165906867005123 -21878.58080124398 0.0 
20700.0 -15239.75820880598 -22010.53555080569 0.0 3.185328577887349 -22010.53555080569 0.0 
20760.0 -15045.00849255678 -22140.76376929377 0.0 3.204506328884366 -22140.76376929377 0.0 
20820.0 -14849.13820675286 -22269.25578869193 0.0 3.223438652835737 -22269.25578869193 0.0 
20880.0 -14652.16306104496 -22396.00208645867 0.0 3.24212410138484 -22396.00208645867 0.0 
20940.0 -14454.09884373489 -22520.99328614635 0.0 3.260561245088707 -22520.99328614635 0.0 
21000.0 -14254.96142034956 -22644.22015800531 0.0 3.278748673526403 -22644.22015800531 0.0 
21060.0 -14054.76673221113 -22765.67361957297 0.0 3.296684995405944 -22765.67361957297 0.0 
21120.0 -13853.53079500424 -22885.34473624762 0.0 3.314368838669719 -22885.34473624762 0.0 
21180.0 -13651.26969733892 -23003.22472184774 0.0 3.331798850598505 -23003.22472184774 0.0 
21240.0 -13447.99959931129 -23119.30493915573 0.0 3.348973697913925 -23119.30493915573 0.0 
21300.0 -13243.73673106084 -23233.57690044694 0.0 3.365892066879463 -23233.57690044694 0.0 
21360.0 -13038.49739132484 -23346.0322680037 0.0 3.382552663399967 -23346.0322680037 0.0 
21420.0 -12832.29794599042 -23456.66285461416 0.0 3.398954213119651 -23456.66285461416 0.0 
21480.0 -12625.15482664381 -23565.46062405645 0.0 3.415095461518594 -23565.46062405645 0.0 
21540.0 -12417.08452911763 -23672.41769156755 0.0 3.430975174007704 -23672.41769156755 0.0 
21600.0 -12208.10361203586 -23777.52632429746 0.0 3.446592136022186 -23777.52632429746 0.0 
21660.0 -11998.22869535693 -23880.77894174833 0.0 3.461945153113446 -23880.77894174833 0.0 
21720.0 -11787.47645891488 -23982.16811619881 0.0 3.477033051039508 -23982.16811619881 0.0 
21780.0 -11575.86364095906 -24081.68657311329 0.0 3.491854675853839 -24081.68657311329 0.0 
21840.0 -11363.40703669241 -24179.32719153652 0.0 3.506408893992653 -24179.32719153652 0.0 
21900.0 -11150.1234968082 -24275.08300447338 0.0 3.520694592360664 -24275.08300447338 0.0 
21960.0 -10936.02992602593 -24368.94719925361 0.0 3.534710678415261 -24368.94719925361 0.0 
22020.0 -10721.14328162605 -24460.91311788212 0.0 3.548456080249138 -24460.91311788212 0.0 
22080.0 -10505.48057198401 -24550.97425737439 0.0 3.561929746671336 -24550.97425737439 0.0 
22140.0 -10289.05885510343 -24639.1242700772 0.0 3.575130647286727 -24639.1242700772 0.0 
22200.0 -10071.89523714919 -24725.35696397467 0.0 3.588057772573898 -24725.35696397467 0.0 
22260.0 -9854.006870979865 -24809.66630297978 0.0 3.600710133961453 -24809.66630297978 0.0 
22320.0 -9635.41095467993 -24892.04640721129 0.0 3.613086763902738 -24892.04640721129 0.0 
22380.0 -9416.124730092268 -24972.49155325605 0.0 3.625186715948946 -24972.49155325605 0.0 
22440.0 -9196.165481350621 -25050.99617441694 0.0 3.637009064820634 -25050.99617441694 0.0 
22500.0 -8975.550533412277 -25127.55486094628 0.0 3.648552906477627 -25127.55486094628 0.0 
22560.0 -8754.297250591266 -25202.16236026493 0.0 3.659817358187319 -25202.16236026493 0.0 
22620.0 -8532.423035092033 -25274.81357716702 0.0 3.670801558591352 -25274.81357716702 0.0 
22680.0 -8309.945325544211 -25345.5035740104 0.0 3.681504667770664 -25345.5035740104 0.0 
22740.0 -8086.88159553791 -25414.22757089274 0.0 3.691925867308931 -25414.22757089274 0.0 
22800.0 -7863.249352159895 -25480.98094581376 0.0 3.702064360354373 -25480.98094581376 0.0 
22860.0 -7639.06613453152 -25545.75923482303 0.0 3.711919371679919 -25545.75923482303 0.0 
22920.0 -7414.349512347567 -25608.55813215373 0.0 3.72149014774174 -25608.55813215373 0.0 
22980.0 -7189.1170844165 -25669.37349034272 0.0 3.730775956736145 -25669.37349034272 0.0 
23040.0 -6963.386477202594 -25728.20132033626 0.0 3.739776088654822 -25728.20132033626 0.0 
23100.0 -6737.175343369494 -25785.03779158215 0.0 3.748489855338447 -25785.03779158215 0.0 
23160.0 -6510.501360325956 -25839.8792321079 0.0 3.75691659052861 -25839.8792321079 0.0 
23220.0 -6283.382228773442 -25892.72212858517 0.0 3.765055649918124 -25892.72212858517 0.0 
23280.0 -6055.835671255703 -25943.56312638066 0.0 3.772906411199648 -25943.56312638066 0.0 
23340.0 -5827.879430710926 -25992.39902959318 0.0 3.780468274112649 -25992.39902959318 0.0 
23400.0 -5599.531269026275 -26039.2268010773 0.0 3.787740660488712 -26039.2268010773 0.0 
23460.0 -5370.808965594812 -26084.04356245355 0.0 3.794723014295164 -26084.04356245355 0.0 
23520.0 -5141.730315874806 -26126.84659410513 0.0 3.801414801677053 -26126.84659410513 0.0 
23580.0 -4912.313129952852 -26167.63333516131 0.0 3.807815510997413 -26167.63333516131 0.0 
23640.0 -4682.575231108565 -26206.40138346769 0.0 3.813924652875893 -26206.40138346769 0.0 
23700.0 -4452.534454383364 -26243.14849554312 0.0 3.81974176022568 -26243.14849554312 0.0 
23760.0 -4222.208645152075 -26277.87258652357 0.0 3.825266388288741 -26277.87258652357 0.0 
23820.0 -3991.615657697517 -26310.57173009305 0.0 3.830498114669401 -26310.57173009305 0.0 
23880.0 -3760.773353788954 -26341.24415840152 0.0 3.83543653936621 -26341.24415840152 0.0 
23940.0 -3529.699601263975 -26369.88826196987 0.0 3.840081284802135 -26369.88826196987 0.0 
24000.0 -3298.412272613683 -26396.50258958227 0.0 3.844431995853058 -26396.50258958227 0.0 
24060.0 -3066.929243572048 -26421.08584816571 0.0 3.848488339874579 -26421.08584816571 0.0 
24120.0 -2835.268391708921 -26443.63690265691 0.0 3.852250006727128 -26443.63690265691 0.0 
24180.0 -2603.447595027094 -26464.1547758567 0.0 3.855716708799373 -26464.1547758567 0.0 
24240.0 -2371.484730563218 -26482.63864827207 0.0 3.858888181029948 -26482.63864827207 0.0 
24300.0 -2139.397672993418 -26499.08785794562 0.0 3.861764180927459 -26499.08785794562 0.0 
24360.0 -1907.204293242698 -26513.50190027293 0.0 3.864344488588801 -26513.50190027293 0.0 
24420.0 -1674.922457098874 -26525.88042780767 0.0 3.866628906715776 -26525.88042780767 0.0 
24480.0 -1442.570023831429 -26536.22325005449 0.0 3.868617260630003 -26536.22325005449 0.0 
24540.0 -1210.164844814188 -26544.53033325016 0.0 3.870309398286121 -26544.53033325016 0.0 
24600.0 -977.7247621534813 -26550.80180013243 0.0 3.871705190283294 -26550.80180013243 0.0 
24660.0 -745.2676073207548 -26555.03792969732 0.0 3.872804529875007 -26555.03792969732 0.0 
24720.0 -512.8111997898644 -26557.2391569446 0.0 3.873607332977151 -26557.2391569446 0.0 
24780.0 -280.3733456799333 -26557.40607261144 0.0 3.874113538174409 -26557.40607261144 0.0 
24840.0 -47.97183640292986 -26555.53942289479 0.0 3.874323106724931 -26555.53942289479 0.0 
24900.0 184.375552683904 -26551.640109162 0.0 3.874236022563297 -26551.640109162 0.0 
24960.0 416.6510636194026 -26545.70918765021 0.0 3.873852292301775 -26545.70918765021 0.0 
25020.0 648.836957175313 -26537.74786915442 0.0 3.873171945229877 -26537.74786915442 0.0 
25080.0 880.9155141875821 -26527.75751870432 0.0 3.872195033312193 -26527.75751870432 0.0 
25140.0 1112.869036881496 -26515.73965523009 0.0 3.870921631184529 -26515.73965523009 0.0 
25200.0 1344.679850191974 -26501.69595121716 0.0 3.869351836148328 -26501.69595121716 0.0 
25260.0 1576.330303077779 -26485.62823234995 0.0 3.867485768163392 -26485.62823234995 0.0 
25320.0 1807.802769829804 -26467.53847714498 0.0 3.86532356983889 -26467.53847714498 0.0 
25380.0 2039.079651373916 -26447.4288165731 0.0 3.862865406422658 -26447.4288165731 0.0 
25440.0 2270.143376567668 -26425.30153367116 0.0 3.860111465788798 -26425.30153367116 0.0 
25500.0 2500.976403490662 -26401.15906314319 0.0 3.857061958423572 -26401.15906314319 0.0 
25560.0 2731.561220729479 -26375.00399095097 0.0 3.853717117409585 -26375.00399095097 0.0 
